#dP2021 11 21  0  0  0.00000000      96 __u+U ITR00 FIT  IAC
## 2185      0.00000000   900.00000000 59539 0.0000000000000
+  112   C06C07C08C09C10C11C12C13C14C16C19C20C21C22C23C24C25
+        C26C27C28C29C30C32C33C34C35C36C37C38C39C40C41C42C43
+        C44C45C46E01E02E03E04E05E07E08E09E11E12E13E14E15E18
+        E19E21E24E25E27E30E31E33E36G01G02G03G04G05G06G07G08
+        G09G10G12G13G14G15G16G17G18G19G20G21G22G23G24G25G26
+        G27G28G29G30G31G32R01R02R03R04R05R07R08R09R11R12R13
+        R14R15R16R17R18R19R20R21R22R24  0  0  0  0  0  0  0
++         8  7  8  8  8  8  7  9  7  8  7  7  8  7  7  6  7
++         6  7  5  6  5  5  8  7  6  5  8  8  7  8  8  6  9
++         8  7  7  6  6  5  6  6  7  6  7  6  7  7  7  8  7
++         5  6  5  7  8  7  8  5  7  5  7  6  4  6  5  5  6
++         4  5  5  6  6  7  6  6  7  6  5  5  5  7  7  5  6
++         5  6  6  6  6  7  7  7  6  6  7  7  6  5  6  7  5
++         7  7  7  6  6  6  8  7  7  6  0  0  0  0  0  0  0
%c M  cc GPS ccc cccc cccc cccc cccc ccccc ccccc ccccc ccccc
%c cc cc ccc ccc cccc cccc cccc cccc ccccc ccccc ccccc ccccc
%f  0.0000000  0.000000000  0.00000000000  0.000000000000000
%f  0.0000000  0.000000000  0.00000000000  0.000000000000000
%i    0    0    0    0      0      0      0      0         0
%i    0    0    0    0      0      0      0      0         0
/* INFORMATION & ANALYSIS CENTER (IAC)      ULTRA-RAPID DATA
/* S/V CLOCKS ARE ALIGNED TO GNSS TIME                      
/* G:C1WC2W R:C1PC2P E:C1XC5X C:C2IC6I J:C1CC2S             
/* PCV:IGS14_2163 OL/AL:FES2004  NONE     YN ORB:CoN CLK:CoN
*  2021 11 21 13  0  0.00000000
PC06 -10417.850713  40714.767416  -1902.394581    519.975961
PC07  -3928.870791  28560.484075  30812.412135    212.059870
PC08 -17107.404677  24307.873984 -29967.602842   -750.464542
PC09  -6436.346460  41008.314213   6093.873221   -285.103799
PC10   5007.538380  31745.393903  27767.004455     13.299027
PC11  -5592.716996 -21701.268576  16671.364948    703.633576
PC12   6497.761268 -27121.876234    467.676083    721.494993
PC13 -10758.866125  25445.445794 -31827.692842    482.171299
PC14 -16551.490210 -21504.581177   6408.789226    526.358109
PC16 -13132.389489  39331.014447  -6790.051574   -714.036556
PC19  21702.595645  17276.155437   3117.220533    932.471510
PC20  10359.299383  22227.849576 -13333.179686   -791.023449
PC21   7934.945714 -14086.556950  22751.062897   -938.655516
PC22  20902.265660   2193.013779  18360.716924   -971.740972
PC23 -27152.100497   5542.306252  -3328.061353   -964.445912
PC24     67.660482 -16721.160576 -22345.201546   -958.905864
PC25 -20217.020386  -6949.374101 -17955.606763   -821.411819
PC26  17768.155159 -16281.840147 -14045.622370    818.690323
PC27 -11930.699065  23792.571756   8351.883960    633.017775
PC28 -16828.149048   7283.692062  21044.515588     -0.075825
PC29  12332.156594  13132.358276 -21314.841686    477.298613
PC30    478.246701  26540.390050  -8582.620350    486.843685
PC32  -7881.837220  14113.381701 -22741.260225   -960.409176
PC33 -21755.886011 -17208.302477  -3006.182117   -969.529884
PC34  -1042.927990 -26276.454610   9361.977853   -531.919924
PC35  16638.046929  -7313.224739 -21186.360245     10.924707
PC36  19668.974891   7736.152191  18241.332023   -809.814542
PC37 -19042.330375  15554.190660  13240.137691   -895.465387
PC38 -24951.986092  25439.614002 -22664.932780    191.092679
PC39 -14042.991508  37662.132351 -12483.969459     34.098998
PC40  -7978.321196  22633.808015  34695.262465    219.713824
PC41 -21082.583358  -2477.447465 -18077.955835   -915.673370
PC42  -9514.508005 -22155.086703  14074.512234   -940.929024
PC43 -12080.033609 -13840.447239  21008.075637   -959.303176
PC44  11271.904163 -24080.011281  -8529.746865    473.099943
PC45  27116.511743  -5713.155940   3160.641082    606.729358
PC46   1281.120871  16325.820652  22603.683242    -20.065091
PE01 -29151.689081  -4769.192890   1998.805728   -521.788160
PE02  29139.381982   4672.863994  -2133.338177    261.775439
PE03  18599.252690   6354.421344  22125.315810   -498.304313
PE04 -11893.281059  14959.328151 -22606.451943   -904.368571
PE05  14500.767424  24312.053437   8643.130973   -232.278510
PE07  -2014.809564 -27889.441290   9696.617236   -609.422977
PE08  11468.166889 -15346.433117  22553.774682   5901.421600
PE09   2334.411796  27924.942172  -9559.980940   5456.078301
PE11  -8742.317224  24262.174825 -14528.495515   5041.833945
PE12 -21447.186510  19879.023321   4562.609023   4898.967596
PE13   9191.650285 -24357.390037  14090.758997    423.921759
PE14 -15138.043136     10.126901  18206.845483  -1647.968091
PE15  21396.026843 -19916.860932  -4633.338346    779.693470
PE18  20702.744453   4456.376366 -24434.352896  -1811.653800
PE19 -18587.331491  -9086.876106 -21173.823888    433.096655
PE21 -20742.868065 -14757.925252 -15107.233966   -700.838243
PE24  -1468.212902  16658.736879  24415.384893  -1238.296537
PE25  20525.871370  14852.000928  15308.973639   -554.307802
PE27     50.223453 -16823.185620 -24348.087362   -169.811478
PE30  21639.961930  -8218.133281 -18440.817354    -47.979912
PE31 -20667.172930   8983.278565  19208.803066   -488.356124
PE33 -20953.426651   3741.500264  20578.989743   -462.303120
PE36   8346.804078  14462.892854 -24432.940528   -293.198398
PG01 -10211.306156  20120.760561 -14005.978801    504.779498
PG02  21189.362240 -14694.071750  -5899.639226   -642.880249
PG03  -1395.966673  15339.766484 -21753.924700    -19.239210
PG04  -1228.877598  25663.233232  -6579.243047   -201.309680
PG05  16934.466272  -8206.237285  18637.481218    -61.816545
PG06  19543.564654   -655.871108 -17934.723603    123.283636
PG07   5603.595307  15119.029963  21408.651675    281.052836
PG08  -7886.212827  19235.057703  16326.598689    -45.052150
PG09   7870.123851  24944.687561   4447.950106   -361.529303
PG10 -23538.963493 -11903.041349   4383.595660   -251.096288
PG12   4212.741303 -14617.634460 -22033.390981   -129.562281
PG13  12996.586229 -12247.720042  19456.500801    217.908591
PG14  22891.834231  12861.303362   4201.130779    -42.199378
PG15   5780.930587 -20523.902749  15228.597333   -104.845253
PG16 -19881.849502   3523.562501  17237.955025   -427.874934
PG17  12467.136000  16838.154496 -15870.731710    536.804644
PG18  -5857.367020 -14247.999693  21619.469375    292.146552
PG19  14603.067841   8060.138188 -20972.888373     82.152000
PG20  24043.158300  -2872.631893  10586.495933    518.011400
PG21 -16331.318778  19933.047538  -4315.709833    151.645850
PG22 -10058.422915  13051.904141 -20624.304736   -459.568322
PG23 -15814.763219 -15865.981892  14315.275490     30.433479
PG24  12318.416695 -21436.208789  -9409.065551    269.160730
PG25  -8326.413359 -17164.023942 -18862.337865    244.018263
PG26 -25825.090117  -3967.828761   5518.508335    157.528329
PG27 -13000.112452   9030.993800  21077.023344   -221.872424
PG28  24357.646583   9797.571062  -2611.274201    458.458791
PG29  -3008.564405 -26337.617585    860.801589   -443.628296
PG30  15117.631791   7415.665231  20653.218071   -493.194950
PG31 -21279.630234   2199.236598 -16146.611166   -151.261301
PG32 -15029.014625 -12499.944785 -17949.241746    -24.809183
PR01 -14501.567811  -2402.216577 -20851.631282     88.425730
PR02  -1119.803864  15006.250415 -20542.820535    500.812494
PR03  11473.847697  21534.950013  -7295.495236     46.834236
PR04  17303.235240  15951.651750   9841.709734    115.270579
PR05  13573.555789   1552.795509  21537.118149     82.851830
PR07 -11843.348730 -21612.863138   6711.655802    -39.803447
PR08 -17373.582427 -15909.410322  -9773.304044    -62.133793
PR09  13004.214587 -11069.895855 -18958.012053     24.745104
PR11 -21183.045571  -3830.225919 -13665.466638     48.830453
PR12 -24679.877201   4896.785057   4294.242424    280.240728
PR13 -13920.616353  10666.404302  18510.780239    -63.827817
PR14   6072.470787  10261.776155  22563.632062     71.254744
PR15  21546.971144   3885.562110  13106.914813    100.064421
PR16  24071.276708  -6096.814921  -5540.993149    -25.391770
PR17  -1871.110187  20692.045483 -14817.571938    476.857237
PR18   8036.820610   7314.221451 -23053.992784     97.934097
PR19  13831.051494  -8504.251517 -19663.801126   -167.815077
PR20  12145.812834 -22303.994558  -2560.243967    -59.757538
PR21   1117.336139 -19877.427811  15931.937215   -256.292362
PR22  -8386.842249  -6509.509374  23189.902663   -146.586909
PR24 -11486.712911  22712.271262   1884.192993     67.891469
EOF
